{"type": "FeatureCollection", "features": [ {"type": "Feature", "properties": {"norad_id": 64901, "name": "CO3D 4", "group": "resource", "lat": -35.661664112629765, "lon": 72.6668471390502, "alt_km": 512.1279533801026, "timestamp": "2025-12-16T23:36:35.842990+00:00", "meta": {"OBJECT_NAME": "CO3D 4", "OBJECT_ID": "2025-156C", "EPOCH": "2025-12-16T07:58:14.221056", "MEAN_MOTION": 15.20198549, "ECCENTRICITY": 9.975e-05, "INCLINATION": 97.4346, "RA_OF_ASC_NODE": 66.648, "ARG_OF_PERICENTER": 184.8541, "MEAN_ANOMALY": 175.2685, "EPHEMERIS_TYPE": 0, "CLASSIFICATION_TYPE": "U", "NORAD_CAT_ID": 64901, "ELEMENT_SET_NO": 999, "REV_AT_EPOCH": 2175, "BSTAR": 0.00021555533, "MEAN_MOTION_DOT": 4.601e-05, "MEAN_MOTION_DDOT": 0}, "tle": {"line1": "1 64901U 25156C   25350.33210904  .00004601  00000+0  21556-3 0  9998", "line2": "2 64901  97.4346  66.6480 0000997 184.8541 175.2685 15.20198549 21754"}}, "geometry": {"type": "Point", "coordinates": [72.6668471390502, -35.661664112629765]}}, {"type": "Feature", "properties": {"norad_id": 64902, "name": "CO3D 2", "group": "resource", "lat": 6.436504639375286, "lon": -111.90253215640901, "alt_km": 515.3125775613871, "timestamp": "2025-12-16T23:36:35.843000+00:00", "meta": {"OBJECT_NAME": "CO3D 2", "OBJECT_ID": "2025-156D", "EPOCH": "2025-12-12T21:01:26.694624", "MEAN_MOTION": 15.22031437, "ECCENTRICITY": 0.00203863, "INCLINATION": 97.4215, "RA_OF_ASC_NODE": 63.2016, "ARG_OF_PERICENTER": 351.3096, "MEAN_ANOMALY": 8.7784, "EPHEMERIS_TYPE": 0, "CLASSIFICATION_TYPE": "U", "NORAD_CAT_ID": 64902, "ELEMENT_SET_NO": 999, "REV_AT_EPOCH": 2122, "BSTAR": 0.00010503321, "MEAN_MOTION_DOT": 2.342e-05, "MEAN_MOTION_DDOT": 0}, "tle": {"line1": "1 64902U 25156D   25346.87600341  .00002342  00000+0  10503-3 0  9991", "line2": "2 64902  97.4215  63.2016 0020386 351.3096   8.7784 15.22031437 21224"}}, "geometry": {"type": "Point", "coordinates": [-111.90253215640901, 6.436504639375286]}}, {"type": "Feature", "properties": {"norad_id": 64903, "name": "CO3D 1", "group": "resource", "lat": 32.995633427587634, "lon": -107.9475974050971, "alt_km": 503.0628294238113, "timestamp": "2025-12-16T23:36:35.843010+00:00", "meta": {"OBJECT_NAME": "CO3D 1", "OBJECT_ID": "2025-156E", "EPOCH": "2025-12-16T08:44:58.713216", "MEAN_MOTION": 15.20205244, "ECCENTRICITY": 9.33e-05, "INCLINATION": 97.4346, "RA_OF_ASC_NODE": 66.5783, "ARG_OF_PERICENTER": 79.006, "MEAN_ANOMALY": 281.128, "EPHEMERIS_TYPE": 0, "CLASSIFICATION_TYPE": "U", "NORAD_CAT_ID": 64903, "ELEMENT_SET_NO": 999, "REV_AT_EPOCH": 2175, "BSTAR": 5.3422e-05, "MEAN_MOTION_DOT": 1.089e-05, "MEAN_MOTION_DDOT": 0}, "tle": {"line1": "1 64903U 25156E   25350.36456844  .00001089  00000+0  53422-4 0  9993", "line2": "2 64903  97.4346  66.5783 0000933  79.0060 281.1280 15.20205244 21751"}}, "geometry": {"type": "Point", "coordinates": [-107.9475974050971, 32.995633427587634]}}, {"type": "Feature", "properties": {"norad_id": 66514, "name": "SENTINEL-6B", "group": "resource", "lat": -45.94841643836309, "lon": 0.9789201062661506, "alt_km": 1336.4565026661458, "timestamp": "2025-12-16T23:36:35.843020+00:00", "meta": {"OBJECT_NAME": "SENTINEL-6B", "OBJECT_ID": "2025-264A", "EPOCH": "2025-12-12T06:01:21.430272", "MEAN_MOTION": 12.81479576, "ECCENTRICITY": 0.0007847, "INCLINATION": 66.0385, "RA_OF_ASC_NODE": 163.4531, "ARG_OF_PERICENTER": 270.1745, "MEAN_ANOMALY": 89.8371, "EPHEMERIS_TYPE": 0, "CLASSIFICATION_TYPE": "U", "NORAD_CAT_ID": 66514, "ELEMENT_SET_NO": 999, "REV_AT_EPOCH": 322, "BSTAR": 0.00018864317, "MEAN_MOTION_DOT": -1.7e-07, "MEAN_MOTION_DDOT": 0}, "tle": {"line1": "1 66514U 25264A   25346.25094248 -.00000017  00000+0  18864-3 0  9993", "line2": "2 66514  66.0385 163.4531 0007847 270.1745  89.8371 12.81479576  3220"}}, "geometry": {"type": "Point", "coordinates": [0.9789201062661506, -45.94841643836309]}}]}